GLOBALSTAR M023         
1 25621U 99004A   24219.59423997 -.00000120  00000+0 -90924-4 0  9996
2 25621  52.0110 291.3650 0010516 152.2071 350.6100 12.62463672175999
GLOBALSTAR M040         
1 25622U 99004B   24219.60527454 -.00000051  00000+0  29617-3 0  9994
2 25622  51.9920 295.0184 0001108  91.6449  51.3485 12.61978292175531
GLOBALSTAR M038         
1 25624U 99004D   24219.53384889 -.00000058  00000+0  30618-3 0  9991
2 25624  51.9954 257.7240 0002044 123.6224 348.8428 12.32504467163574
GLOBALSTAR M041         
1 25650U 99012B   24219.56969053 -.00000007  00000+0  10132-2 0  9996
2 25650  52.0027 298.0277 0002870  73.1129 287.0022 11.96658015140616
GLOBALSTAR M046         
1 25651U 99012C   24219.62661376  .00000030  00000+0  13074-2 0  9994
2 25651  52.0069  27.6275 0002170   8.2865  68.7815 12.09395077145605
GLOBALSTAR M037         
1 25652U 99012D   24219.53101700 -.00000099  00000+0  29048-4 0  9991
2 25652  52.0006  62.2889 0001416 184.2089 193.2330 12.62413337171534
